1 08513U 75123A   20007.00450118 -.00000101  00000-0  00000+0 0  9995
2 08513   8.6474 300.5434 0003525 203.9396  42.7559  1.00248891171345
1 09416U 76092A   20006.90605056  .00000043  00000-0  00000+0 0  9999
2 09416   9.2918 302.3853 0029930 333.2733 220.0914  1.00267227105733
1 10159U 77071A   20006.77133826 -.00000333  00000-0  00000-0 0  9993
2 10159   9.8815 304.7088 0006116 229.4442 323.5081  1.00269994153449
1 10987U 78073A   20005.96786810  .00000155  00000-0  00000+0 0  9992
2 10987  10.4639 307.7791 0012368 339.2356 211.2712  1.00228506 95986
1 11343U 79035A   20007.40961095 -.00000075  00000-0  00000+0 0  9991
2 11343  10.8830 310.1724 0003107  93.2839 285.8746  1.00296717105736
1 11708U 80016A   20006.46976310  .00000159  00000-0  00000+0 0  9990
2 11708  11.1954 312.8555 0001615 333.3581  30.1252  1.00280390 98540
1 12003U 80081A   20006.36926712 -.00000075  00000-0  00000-0 0  9990
2 12003  11.3438 314.5861 0009786 268.0375 273.4971  1.00160891 99701
1 12351U 81027A   20006.83588201 -.00000139  00000-0  00000-0 0  9997
2 12351  11.6637 315.2730 0081324 202.7117 326.5456  1.00418969 98924
1 12618U 81069A   20005.96629785  .00000153  00000-0  00000-0 0  9990
2 12618  11.8304 317.7619 0003542  35.2685 136.6252  1.00297992 23733
1 12897U 81102A   20006.89443334 -.00000010  00000-0  00000+0 0  9996
2 12897  11.8952 318.5846 0001752 120.4780  55.7618  1.00287307 93807
1 13669U 82113A   20006.67555303 -.00000155  00000-0  00000-0 0  9994
2 13669  13.6518 330.6809 0037012 234.7586 137.4219  0.97709801 98542
1 13974U 83028A   20006.40407432 -.00000056  00000-0  00000-0 0  9999
2 13974  12.8073 327.4573 0004527   9.4888 346.1290  1.00250082145770
1 14307U 83088A   20006.87548720 -.00000036  00000-0  00000+0 0  9990
2 14307  13.8426 332.3006 0020197  11.7888 353.5092  0.98172944 95836
1 14725U 84016A   20006.90663046 -.00000070  00000-0  00000-0 0  9998
2 14725  12.9110 330.8018 0003315  42.7359 131.3021  1.00298681 94504
1 15057U 84063A   20007.27692484 -.00000333  00000-0  00000+0 0  9999
2 15057  13.0016 331.7610 0002440  69.9738 293.9422  1.00270819117495
1 15946U 85070A   20006.80840265 -.00000286  00000-0  00000+0 0  9992
2 15946  13.3230 336.1316 0003273 342.5665  18.0397  1.00348850 98620
1 16250U 85107A   20006.74185247 -.00000246  00000-0  00000-0 0  9994
2 16250  13.4018 337.3998 0008066 163.2769 198.2667  1.00173098128109
1 16497U 86007A   20007.01015687  .00000040  00000-0  00000+0 0  9998
2 16497  14.1397 339.8836 0070047 139.9163 222.3872  0.98811166122667
1 17046U 86082A   20007.24464747 -.00000196  00000-0  00000+0 0  9995
2 17046  14.4318 343.5525 0008131 109.8674  68.6837  0.98461593119785
1 17611U 87028A   20006.67738500 -.00000136  00000-0  00000-0 0  9996
2 17611  16.3431 347.1162 0024928 107.5098 258.4026  0.95962546115735
1 18631U 87100A   20006.58713865  .00000045  00000-0  00000-0 0  9995
2 18631  14.4562 344.9328 0003226   9.1696 192.1037  1.00348588117481
1 19596U 88095A   20007.47844024  .00000056  00000-0  00000+0 0  9992
2 19596  14.2748 348.8358 0003413  53.0018 296.4991  1.00164175 98119
1 19928U 89030A   20007.11414228  .00000139  00000-0  00000+0 0  9993
2 19928  14.3528 350.5709 0016111 136.1689  53.9459  1.00308957111244
1 20083U 89048A   20006.47813775  .00000007  00000-0  00000-0 0  9999
2 20083  15.0015 353.3976 0019102  78.7784 289.4631  0.98706280108043
1 20367U 89098A   20006.81651809 -.00000271  00000-0  00000-0 0  9999
2 20367  14.8333 352.9971 0003407 334.8649 167.7330  1.00225030109379
1 20499U 90016A   20006.64266503  .00000081  00000-0  00000-0 0  9999
2 20499  14.5795 353.5276 0002245 353.8401 178.1624  1.00260880109302
1 21016U 90112A   20006.85248601  .00000077  00000-0  00000+0 0  9998
2 21016  14.7549 356.6950 0007225  25.0704  84.9372  1.00257791106642
1 21038U 90116A   20006.85199638 -.00000031  00000-0  00000+0 0  9992
2 21038  14.7894 356.7866 0007453  41.7315  83.1710  1.00216353106312
1 21132U 91014A   20006.61885924  .00000123  00000-0  00000-0 0  9991
2 21132  15.3146 356.6930 0005230 359.4142 356.9669  1.00313864105704
1 21821U 91087A   20006.92896615 -.00000352  00000-0  00000+0 0  9993
2 21821  14.9267   0.0607 0004266  49.0616 142.3221  1.00226609102758
1 22557U 93013A   20006.41562338 -.00000331  00000-0  00000-0 0  9995
2 22557  14.9500   4.2015 0004499  36.0186 316.6301  1.00369051 98073
1 22836U 93062A   20006.59042764 -.00000157  00000-0  00000+0 0  9999
2 22836  14.9041   6.0777 0006638 314.5485  78.5680  1.00276147 96177
1 22981U 94008A   20006.81620601 -.00000269  00000-0  00000-0 0  9993
2 22981  14.9314   7.2519 0004081 345.9151 139.7264  1.00313451 94880
1 23448U 94087A   20006.58782905 -.00000147  00000-0  00000-0 0  9994
2 23448  14.7623   9.8510 0004787 244.5108 142.7655  1.00276971109282
1 25642U 99010A   20007.12512559  .00000134  00000-0  00000+0 0  9994
2 25642  14.8003  21.7644 0004990 280.9611 244.0763  1.00258528 76370
1 26477U 00049A   20006.85232622  .00000065  00000-0  00000-0 0  9998
2 26477  12.5674  25.2909 0005441 344.4758 100.0803  1.00217637 70825
1 26936U 01045A   20007.45475255 -.00000113  00000-0  00000+0 0  9997
2 26936  12.4537  31.1544 0012170 154.1170  31.3957  0.97744707 65574
1 28194U 04010A   20006.55525446 -.00000346  00000-0  00000-0 0  9997
2 28194  10.9205  38.2490 0003495 269.8797 108.0519  1.00197402 57817
1 32373U 07058A   20006.62975407 -.00000278  00000-0  00000-0 0  9994
2 32373   4.9774  69.4255 0004498 264.3094 122.6361  0.99397942 29009
1 34264U 09010A   20006.55438209 -.00000258  00000-0  00000+0 0  9998
2 34264   7.5082  60.7628 0013896 325.1207  25.3043  0.99819778 39679
1 36358U 10002A   20007.41161740 -.00000166  00000-0  00000+0 0  9994
2 36358   0.0062 296.1019 0002824   9.6381  33.8771  1.00270704 36410
1 39375U 13062A   20007.04269593  .00000174  00000-0  10000-3 0  9992
2 39375   0.0673 100.9005 0002827 214.8782 200.6929  1.00275344 22537
